     2.100          NAVIGATION                              RINEX VERSION / TYPE
fic2rin                                 05/31/2017 00:04:45 PGM / RUN BY / DATE
                                                            END OF HEADER
25 17  5 30  8  0  0.0 -.396008137614D-03 -.659383658785D-11  .000000000000D+00
     .230000000000D+02  .782812500000D+02  .395980779903D-08 -.132505713553D+01
     .408850610256D-05  .651471584570D-02  .626407563686D-05  .515359145546D+04
     .201600000000D+06  .176951289177D-06  .166984744659D+01  .558793544769D-08
     .976913813296D+00  .269000000000D+03  .816112273301D+00 -.793854495798D-08
     .357157734196D-10  .100000000000D+01  .195100000000D+04  .000000000000D+00
     .240000000000D+01  .000000000000D+00  .558793544769D-08  .230000000000D+02
     .194406000000D+06  .400000000000D+01
26 17  5 30  8  0  0.0 -.498141162097D-03  .500222085975D-11  .000000000000D+00
     .320000000000D+02  .898750000000D+02  .439304013061D-08 -.195009567868D+01
     .471994280815D-05  .181600684300D-02  .612623989582D-05  .515371173286D+04
     .201600000000D+06 -.745058059692D-07  .165436748970D+01  .819563865662D-07
     .958689116335D+00  .262781250000D+03  .100497463014D+00 -.809998025383D-08
     .120004998690D-09  .100000000000D+01  .195100000000D+04  .000000000000D+00
     .240000000000D+01  .000000000000D+00  .745058059692D-08  .320000000000D+02
     .194406000000D+06  .400000000000D+01
27 17  5 30  8  0  0.0  .266639981419D-03  .682121026330D-11  .000000000000D+00
     .460000000000D+02 -.393750000000D+02  .429696470011D-08  .260837807552D+01
    -.198185443878D-05  .484199472703D-02  .272132456303D-05  .515366510201D+04
     .201600000000D+06 -.100582838058D-06  .270983465981D+01 -.670552253723D-07
     .975087039695D+00  .334218750000D+03  .354804255959D+00 -.826427281156D-08
     .514307137242D-10  .100000000000D+01  .195100000000D+04  .000000000000D+00
     .240000000000D+01  .000000000000D+00  .139698386192D-08  .460000000000D+02
     .194406000000D+06  .400000000000D+01
28 17  5 30  8  0  0.0  .616860110313D-03  .306954461848D-11  .000000000000D+00
     .700000000000D+01  .100468750000D+03  .361943647834D-08 -.283163663977D+01
     .516138970852D-05  .197269123746D-01  .685639679432D-05  .515365395355D+04
     .201600000000D+06  .210478901863D-06  .174863381993D+01  .186264514923D-08
     .988260498502D+00  .260656250000D+03 -.156943532290D+01 -.746423948696D-08
     .192150860997D-09  .100000000000D+01  .195100000000D+04  .000000000000D+00
     .240000000000D+01  .000000000000D+00 -.111758708954D-07  .700000000000D+01
     .194406000000D+06  .400000000000D+01
29 17  5 30  8  0  0.0  .599769409746D-03 -.352429196937D-11  .000000000000D+00
     .660000000000D+02 -.461250000000D+02  .406909806570D-08 -.198993892552D+01
    -.236183404922D-05  .700037344359D-03  .327825546265D-05  .515362705040D+04
     .201600000000D+06 -.242143869400D-07  .277195839769D+01 -.372529029846D-08
     .981345625601D+00  .327281250000D+03  .373968472557D+00 -.808890836407D-08
     .167864135072D-10  .100000000000D+01  .195100000000D+04  .000000000000D+00
     .240000000000D+01  .000000000000D+00 -.977888703346D-08  .660000000000D+02
     .194406000000D+06  .400000000000D+01
30 17  5 30  8  0  0.0  .155503395945D-03 -.113686837722D-11  .000000000000D+00
     .350000000000D+02  .297500000000D+02  .468412368398D-08 -.194858970693D+00
     .129826366901D-05  .284950179048D-02  .100787729025D-04  .515367515945D+04
     .201600000000D+06  .391155481339D-07  .679446407819D+00 -.149011611938D-07
     .948266320950D+00  .178343750000D+03  .309414197088D+01 -.810676625078D-08
    -.577166898461D-09  .100000000000D+01  .195100000000D+04  .000000000000D+00
     .240000000000D+01  .000000000000D+00  .372529029846D-08  .350000000000D+02
     .194406000000D+06  .400000000000D+01
31 17  5 30  8  0  0.0  .197927467525D-03 -.238742359215D-11  .000000000000D+00
     .900000000000D+02  .384062500000D+02  .426874923911D-08 -.420798727316D+00
     .192597508430D-05  .840847264044D-02  .977702438831D-05  .515371073914D+04
     .201600000000D+06  .128522515297D-06  .651520640256D+00 -.894069671631D-07
     .967297139900D+00  .197468750000D+03 -.254347207519D+00 -.792425864861D-08
    -.455018953366D-09  .100000000000D+01  .195100000000D+04  .000000000000D+00
     .240000000000D+01  .000000000000D+00 -.135041773319D-07  .900000000000D+02
     .194406000000D+06  .400000000000D+01
32 17  5 30  8  0  0.0 -.427284277976D-03 -.989075488178D-11  .000000000000D+00
     .340000000000D+02  .625000000000D+01  .501556606132D-08 -.304623620216D+01
     .339001417160D-06  .123567983974D-02  .623613595963D-05  .515372218513D+04
     .201600000000D+06 -.651925802231D-07 -.434353438667D+00 -.726431608200D-07
     .958130995533D+00  .256968750000D+03 -.258392325958D+01 -.821319925557D-08
    -.245010205659D-09  .100000000000D+01  .195100000000D+04  .000000000000D+00
     .240000000000D+01  .000000000000D+00  .465661287308D-09  .340000000000D+02
     .194406000000D+06  .400000000000D+01
22 17  5 30  7 59 44.0 -.620586797595D-05 -.121644916362D-10  .000000000000D+00
     .000000000000D+00  .718750000000D+00  .556058876370D-08  .202619089279D+01
    -.745058059692D-08  .752918969374D-02  .988692045212D-05  .515381344414D+04
     .201584000000D+06  .800937414169D-07 -.152005540089D+01 -.108033418655D-06
     .923250051676D+00  .170468750000D+03 -.172638437054D+01 -.831677499849D-08
     .508949771229D-09  .100000000000D+01  .195100000000D+04  .000000000000D+00
     .240000000000D+01  .000000000000D+00 -.176951289177D-07  .000000000000D+00
     .196536000000D+06  .400000000000D+01
12 17  5 30  7 59 44.0  .382527709007D-03 -.795807864051D-12  .000000000000D+00
     .100000000000D+01  .820625000000D+02  .384516016636D-08 -.792476513005D+00
     .430084764957D-05  .666026270483D-02  .644475221634D-05  .515378273010D+04
     .201584000000D+06  .577419996262D-07  .172519072448D+01  .113621354103D-06
     .988989548116D+00  .270031250000D+03  .883424516394D+00 -.794104506212D-08
     .878608026122D-10  .100000000000D+01  .195100000000D+04  .000000000000D+00
     .240000000000D+01  .000000000000D+00 -.125728547573D-07  .100000000000D+01
     .197286000000D+06  .400000000000D+01
12 17  5 30  9 59 44.0  .382521655411D-03 -.795807864051D-12  .000000000000D+00
     .110000000000D+02  .846562500000D+02  .385516058291D-08  .257525715963D+00
     .445172190666D-05  .666031928267D-02  .692903995514D-05  .515378247643D+04
     .208784000000D+06 -.409781932831D-07  .172513357705D+01  .115483999252D-06
     .988990124506D+00  .259718750000D+03  .883532735759D+00 -.793783064251D-08
     .585738684082D-10  .100000000000D+01  .195100000000D+04  .000000000000D+00
     .240000000000D+01  .000000000000D+00 -.125728547573D-07  .110000000000D+02
     .201606000000D+06  .400000000000D+01
22 17  5 30  9 59 44.0 -.629387795925D-05 -.121644916362D-10  .000000000000D+00
     .200000000000D+01  .109687500000D+02  .542629745564D-08  .307616316851D+01
     .251457095146D-06  .752820796333D-02  .963732600212D-05  .515381596756D+04
     .208784000000D+06  .894069671631D-07 -.152011486705D+01 -.223517417908D-07
     .923253761636D+00  .173500000000D+03 -.172625535872D+01 -.827105880851D-08
     .494306304127D-09  .100000000000D+01  .195100000000D+04  .000000000000D+00
     .240000000000D+01  .000000000000D+00 -.176951289177D-07  .200000000000D+01
     .201606000000D+06  .400000000000D+01
 1 17  5 30 10  0  0.0  .553191639483D-04  .454747350886D-12  .000000000000D+00
     .530000000000D+02 -.956562500000D+02  .419624621907D-08  .148291824822D+01
    -.503845512867D-05  .670062436257D-02  .930018723011D-05  .515369202423D+04
     .208800000000D+06 -.465661287308D-07 -.251646377963D+01  .109896063805D-06
     .967619264221D+00  .202625000000D+03  .549791351942D+00 -.799211861811D-08
    -.157149403046D-10  .100000000000D+01  .195100000000D+04  .000000000000D+00
     .240000000000D+01  .000000000000D+00  .558793544769D-08  .530000000000D+02
     .201606000000D+06  .400000000000D+01
 2 17  5 30 10  0  0.0  .409129075706D-03 -.795807864051D-11  .000000000000D+00
     .500000000000D+01 -.120937500000D+03  .456519015849D-08  .179348388194D+01
    -.630505383015D-05  .167982007843D-01  .805966556072D-05  .515380370903D+04
     .208800000000D+06 -.178813934326D-06 -.256989699999D+01 -.381842255592D-06
     .946574924325D+00  .217875000000D+03 -.197611813277D+01 -.818605526777D-08
     .446447167745D-10  .100000000000D+01  .195100000000D+04  .000000000000D+00
     .240000000000D+01  .000000000000D+00 -.204890966415D-07  .500000000000D+01
     .201606000000D+06  .400000000000D+01
 3 17  5 30 10  0  0.0 -.978000462055D-04  .216004991671D-11  .000000000000D+00
     .420000000000D+02  .106250000000D+02  .468019494891D-08  .842514186395D+00
     .428408384323D-06  .694320537150D-03  .988878309727D-05  .515372934723D+04
     .208800000000D+06  .372529029846D-08 -.147400799017D+01  .502914190292D-07
     .959450815355D+00  .192718750000D+03  .688065846533D-01 -.800069040373D-08
     .508949771229D-09  .100000000000D+01  .195100000000D+04  .000000000000D+00
     .240000000000D+01  .000000000000D+00  .232830643654D-08  .420000000000D+02
     .201606000000D+06  .400000000000D+01
 4 17  5 30 10  0  0.0 -.187852419913D-04  .227373675443D-12  .000000000000D+00
     .210000000000D+02  .419687500000D+02  .371694053978D-08  .236345266754D+01
     .185333192348D-05  .164177704137D-01  .101402401924D-04  .515364413071D+04
     .208800000000D+06 -.197440385818D-06  .764814044363D+00 -.236555933952D-06
     .986267177530D+00  .197781250000D+03 -.243281548730D+01 -.744781023119D-08
    -.416088760338D-09  .100000000000D+01  .195100000000D+04  .000000000000D+00
     .340000000000D+01  .630000000000D+02 -.512227416039D-08  .210000000000D+02
     .201606000000D+06  .400000000000D+01
